{
  "type": "FeatureCollection",
  "features": [
    {
      "type": "Feature",
      "properties": {
        "norad_id": 41773,
        "name": "SKYSAT-C2",
        "group": "resource",
        "lat": -55.90670555223978,
        "lon": -171.03252976838928,
        "alt_km": 462.3430044874167,
        "timestamp": "2025-12-21T07:34:34.197940+00:00",
        "meta_object_name": "SKYSAT-C2",
        "meta_object_id": "2016-058D",
        "meta_epoch": "2025-12-20T19:36:58.060224",
        "meta_mean_motion": 15.37438563,
        "meta_eccentricity": 0.00033289,
        "meta_inclination": 97.0349,
        "meta_ra_of_asc_node": 19.0021,
        "meta_arg_of_pericenter": 11.7466,
        "meta_mean_anomaly": 348.3857,
        "meta_ephemeris_type": 0,
        "meta_classification_type": "U",
        "meta_norad_cat_id": 41773,
        "meta_element_set_no": 999,
        "meta_rev_at_epoch": 51760,
        "meta_bstar": 0.00021467498,
        "meta_mean_motion_dot": 7.805e-05,
        "meta_mean_motion_ddot": 0,
        "tle_line1": "1 41773U 16058D   25354.81733866  .00007805  00000+0  21467-3 0  9995",
        "tle_line2": "2 41773  97.0349  19.0021 0003328  11.7466 348.3857 15.37438563517602"
      },
      "geometry": {
        "type": "Point",
        "coordinates": [
          -171.03252976838928,
          -55.90670555223978
        ]
      }
    },
    {
      "type": "Feature",
      "properties": {
        "norad_id": 41774,
        "name": "SKYSAT-C3",
        "group": "resource",
        "lat": -72.26845830645024,
        "lon": 51.016967227834705,
        "alt_km": 440.9803507720371,
        "timestamp": "2025-12-21T07:34:34.197949+00:00",
        "meta_object_name": "SKYSAT-C3",
        "meta_object_id": "2016-058E",
        "meta_epoch": "2025-12-20T08:34:23.687904",
        "meta_mean_motion": 15.44652608,
        "meta_eccentricity": 0.0001932,
        "meta_inclination": 96.9286,
        "meta_ra_of_asc_node": 27.7493,
        "meta_arg_of_pericenter": 107.595,
        "meta_mean_anomaly": 252.5511,
        "meta_ephemeris_type": 0,
        "meta_classification_type": "U",
        "meta_norad_cat_id": 41774,
        "meta_element_set_no": 999,
        "meta_rev_at_epoch": 51843,
        "meta_bstar": 0.0002841356,
        "meta_mean_motion_dot": 0.00013163,
        "meta_mean_motion_ddot": 0,
        "tle_line1": "1 41774U 16058E   25354.35721861  .00013163  00000+0  28414-3 0  9990",
        "tle_line2": "2 41774  96.9286  27.7493 0001932 107.5950 252.5511 15.44652608518432"
      },
      "geometry": {
        "type": "Point",
        "coordinates": [
          51.016967227834705,
          -72.26845830645024
        ]
      }
    },
    {
      "type": "Feature",
      "properties": {
        "norad_id": 41785,
        "name": "ALSAT 1B",
        "group": "resource",
        "lat": 69.88927008685484,
        "lon": -15.190935526383848,
        "alt_km": 640.1196253385642,
        "timestamp": "2025-12-21T07:34:34.197959+00:00",
        "meta_object_name": "ALSAT 1B",
        "meta_object_id": "2016-059C",
        "meta_epoch": "2025-12-20T21:27:55.800576",
        "meta_mean_motion": 14.7208372,
        "meta_eccentricity": 0.00108119,
        "meta_inclination": 97.7806,
        "meta_ra_of_asc_node": 6.3323,
        "meta_arg_of_pericenter": 80.5388,
        "meta_mean_anomaly": 279.7041,
        "meta_ephemeris_type": 0,
        "meta_classification_type": "U",
        "meta_norad_cat_id": 41785,
        "meta_element_set_no": 999,
        "meta_rev_at_epoch": 49434,
        "meta_bstar": 7.1754696e-05,
        "meta_mean_motion_dot": 4.04e-06,
        "meta_mean_motion_ddot": 0,
        "tle_line1": "1 41785U 16059C   25354.89439584  .00000404  00000+0  71755-4 0  9991",
        "tle_line2": "2 41785  97.7806   6.3323 0010811  80.5388 279.7041 14.72083720494342"
      },
      "geometry": {
        "type": "Point",
        "coordinates": [
          -15.190935526383848,
          69.88927008685484
        ]
      }
    },
    {
      "type": "Feature",
      "properties": {
        "norad_id": 41787,
        "name": "PATHFINDER 1",
        "group": "resource",
        "lat": 3.1617880376301497,
        "lon": -2.7432556474029552,
        "alt_km": 659.1131069038738,
        "timestamp": "2025-12-21T07:34:34.197967+00:00",
        "meta_object_name": "PATHFINDER 1",
        "meta_object_id": "2016-059E",
        "meta_epoch": "2025-12-20T21:44:31.538976",
        "meta_mean_motion": 14.67334172,
        "meta_eccentricity": 0.0029819,
        "meta_inclination": 97.8136,
        "meta_ra_of_asc_node": 357.3006,
        "meta_arg_of_pericenter": 56.3339,
        "meta_mean_anomaly": 304.0704,
        "meta_ephemeris_type": 0,
        "meta_classification_type": "U",
        "meta_norad_cat_id": 41787,
        "meta_element_set_no": 999,
        "meta_rev_at_epoch": 49356,
        "meta_bstar": 0.00010532292,
        "meta_mean_motion_dot": 5.52e-06,
        "meta_mean_motion_ddot": 0,
        "tle_line1": "1 41787U 16059E   25354.90592059  .00000552  00000+0  10532-3 0  9991",
        "tle_line2": "2 41787  97.8136 357.3006 0029819  56.3339 304.0704 14.67334172493568"
      },
      "geometry": {
        "type": "Point",
        "coordinates": [
          -2.7432556474029552,
          3.1617880376301497
        ]
      }
    },
    {
      "type": "Feature",
      "properties": {
        "norad_id": 41790,
        "name": "SCATSAT 1",
        "group": "resource",
        "lat": -5.956144894724448,
        "lon": 52.948770835897484,
        "alt_km": 647.6204276211029,
        "timestamp": "2025-12-21T07:34:34.197977+00:00",
        "meta_object_name": "SCATSAT 1",
        "meta_object_id": "2016-059H",
        "meta_epoch": "2025-12-20T21:51:39.270816",
        "meta_mean_motion": 14.78960606,
        "meta_eccentricity": 0.00564623,
        "meta_inclination": 98.1452,
        "meta_ra_of_asc_node": 51.6828,
        "meta_arg_of_pericenter": 102.2404,
        "meta_mean_anomaly": 258.5138,
        "meta_ephemeris_type": 0,
        "meta_classification_type": "U",
        "meta_norad_cat_id": 41790,
        "meta_element_set_no": 999,
        "meta_rev_at_epoch": 7523,
        "meta_bstar": 0.00013992684,
        "meta_mean_motion_dot": 1.004e-05,
        "meta_mean_motion_ddot": 0,
        "tle_line1": "1 41790U 16059H   25354.91087119  .00001004  00000+0  13993-3 0  9999",
        "tle_line2": "2 41790  98.1452  51.6828 0056462 102.2404 258.5138 14.78960606 75234"
      },
      "geometry": {
        "type": "Point",
        "coordinates": [
          52.948770835897484,
          -5.956144894724448
        ]
      }
    },
    {
      "type": "Feature",
      "properties": {
        "norad_id": 41875,
        "name": "GOKTURK 1A",
        "group": "resource",
        "lat": -58.21728646064291,
        "lon": -99.07186634791061,
        "alt_km": 691.9749996514547,
        "timestamp": "2025-12-21T07:34:34.197986+00:00",
        "meta_object_name": "GOKTURK 1A",
        "meta_object_id": "2016-073A",
        "meta_epoch": "2025-12-20T23:38:16.357920",
        "meta_mean_motion": 14.62788671,
        "meta_eccentricity": 0.00012768,
        "meta_inclination": 98.1435,
        "meta_ra_of_asc_node": 247.2401,
        "meta_arg_of_pericenter": 81.7696,
        "meta_mean_anomaly": 278.365,
        "meta_ephemeris_type": 0,
        "meta_classification_type": "U",
        "meta_norad_cat_id": 41875,
        "meta_element_set_no": 999,
        "meta_rev_at_epoch": 48277,
        "meta_bstar": 0.00010545621,
        "meta_mean_motion_dot": 4.91e-06,
        "meta_mean_motion_ddot": 0,
        "tle_line1": "1 41875U 16073A   25354.98491155  .00000491  00000+0  10546-3 0  9995",
        "tle_line2": "2 41875  98.1435 247.2401 0001276  81.7696 278.3650 14.62788671482779"
      },
      "geometry": {
        "type": "Point",
        "coordinates": [
          -99.07186634791061,
          -58.21728646064291
        ]
      }
    },
    {
      "type": "Feature",
      "properties": {
        "norad_id": 41877,
        "name": "RESOURCESAT-2A",
        "group": "resource",
        "lat": 19.169700255288305,
        "lon": -111.8000271557268,
        "alt_km": 819.4811967166361,
        "timestamp": "2025-12-21T07:34:34.197995+00:00",
        "meta_object_name": "RESOURCESAT-2A",
        "meta_object_id": "2016-074A",
        "meta_epoch": "2025-12-20T22:22:39.497376",
        "meta_mean_motion": 14.21601695,
        "meta_eccentricity": 0.00014095,
        "meta_inclination": 98.7753,
        "meta_ra_of_asc_node": 64.7408,
        "meta_arg_of_pericenter": 216.0947,
        "meta_mean_anomaly": 144.0135,
        "meta_ephemeris_type": 0,
        "meta_classification_type": "U",
        "meta_norad_cat_id": 41877,
        "meta_element_set_no": 999,
        "meta_rev_at_epoch": 46897,
        "meta_bstar": -8.943122e-05,
        "meta_mean_motion_dot": -2.4e-06,
        "meta_mean_motion_ddot": 0,
        "tle_line1": "1 41877U 16074A   25354.93240159 -.00000240  00000+0 -89431-4 0  9993",
        "tle_line2": "2 41877  98.7753  64.7408 0001409 216.0947 144.0135 14.21601695468977"
      },
      "geometry": {
        "type": "Point",
        "coordinates": [
          -111.8000271557268,
          19.169700255288305
        ]
      }
    }
  ]
}